[{"OBJECT_NAME":"NANOACE","OBJECT_ID":"2017-042V","EPOCH":"2026-03-09T10:49:24.913920","MEAN_MOTION":15.22047259,"ECCENTRICITY":0.0004338,"INCLINATION":97.3683,"RA_OF_ASC_NODE":244.5146,"ARG_OF_PERICENTER":18.2396,"MEAN_ANOMALY":341.8995,"EPHEMERIS_TYPE":0,"CLASSIFICATION_TYPE":"U","NORAD_CAT_ID":42844,"ELEMENT_SET_NO":999,"REV_AT_EPOCH":47289,"BSTAR":0.00068471795,"MEAN_MOTION_DOT":0.0001561,"MEAN_MOTION_DDOT":0},{"OBJECT_NAME":"STARLINK-36151","OBJECT_ID":"2025-299X","EPOCH":"2026-03-09T22:00:01.999584","MEAN_MOTION":15.36387486,"ECCENTRICITY":0.00011462,"INCLINATION":42.9991,"RA_OF_ASC_NODE":167.613,"ARG_OF_PERICENTER":265.1086,"MEAN_ANOMALY":42.0682,"EPHEMERIS_TYPE":0,"CLASSIFICATION_TYPE":"U","NORAD_CAT_ID":67123,"ELEMENT_SET_NO":999,"REV_AT_EPOCH":590,"BSTAR":-0.062696381,"MEAN_MOTION_DOT":-0.02019994,"MEAN_MOTION_DDOT":0}]
